GPS BIIF-8  (PRN 03)    
1 40294U 14068A   25085.19768657 -.00000022  00000+0  00000+0 0  9990
2 40294  56.6593  48.2667 0056997  63.7449 296.8302  2.00577710 76201
COSMOS 2501 (702K)      
1 40315U 14075A   25085.15798404  .00000006  00000+0  00000+0 0  9992
2 40315  63.6167 205.8863 0020186 206.5603 153.3186  2.13101287 80308
GPS BIIF-9  (PRN 26)    
1 40534U 15013A   25084.84248481  .00000007  00000+0  00000+0 0  9999
2 40534  53.2594 222.7283 0097668  34.6675 325.9268  2.00548208 72833
GSAT0203 (GALILEO 7)    
1 40544U 15017A   25085.06357067 -.00000079  00000+0  00000+0 0  9990
2 40544  56.9303 353.7857 0023982  44.7959 315.4260  1.70475447 62227
GSAT0204 (GALILEO 8)    
1 40545U 15017B   25077.10541200 -.00000094  00000+0  00000+0 0  9998
2 40545  56.9092 354.0363 0003778 283.8463  76.1362  1.70475554 24474
IRNSS-1D                
1 40547U 15018A   25084.84815554 -.00000288  00000+0  00000+0 0  9991
2 40547  26.9335 247.7865 0021020 181.5126 171.3743  1.00267411 36487
BEIDOU-3S IGSO-1S (C31) 
1 40549U 15019A   25084.90897625 -.00000120  00000+0  00000+0 0  9995
2 40549  50.0425 300.8432 0037157 191.7651 109.7480  1.00295384 36575
GPS BIIF-10 (PRN 08)    
1 40730U 15033A   25084.50403480  .00000022  00000+0  00000+0 0  9991
2 40730  54.3505 285.5444 0104659  24.1593 336.3586  2.00552368 70999
BEIDOU-3S M2S (C58)     
1 40748U 15037A   25084.42856897 -.00000028  00000+0  00000+0 0  9996
2 40748  55.2593 317.4484 0008575 269.6346  90.3235  1.86229116 65768
BEIDOU-3S M1S (C57)     
1 40749U 15037B   25085.23033115 -.00000028  00000+0  00000+0 0  9997
2 40749  55.2550 317.4139 0004409  15.7710 344.3001  1.86253711 65767
GSAT0205 (GALILEO 9)    
1 40889U 15045A   25083.91274548  .00000031  00000+0  00000+0 0  9994
2 40889  55.0991 234.0121 0005426  49.2104 310.7919  1.70473768 59355
GSAT0206 (GALILEO 10)   
1 40890U 15045B   25084.13336632  .00000030  00000+0  00000+0 0  9993
2 40890  55.1002 234.0015 0003329  52.0219 307.9623  1.70473721 59395
GPS BIIF-11 (PRN 10)    
1 41019U 15062A   25083.56221140 -.00000018  00000+0  00000+0 0  9996
2 41019  56.6354  48.1862 0102963 228.6306 130.4770  2.00566648 68815
GSAT-15 (GAGAN/PRN 139) 
1 41028U 15065A   25085.10322451 -.00000260  00000+0  00000+0 0  9997
2 41028   0.0237 253.3809 0002482 143.4149 277.6599  1.00271222 34370
GSAT0209 (GALILEO 12)   
1 41174U 15079A   25083.71554761  .00000055  00000+0  00000+0 0  9991
2 41174  55.5627 113.6028 0005113 312.8020  47.2315  1.70474529 57111
GSAT0208 (GALILEO 11)   
1 41175U 15079B   25084.52208336  .00000059  00000+0  00000+0 0  9990
2 41175  55.5615 113.5779 0004566 313.6963  46.3453  1.70474426 57701
GPS BIIF-12 (PRN 32)    
1 41328U 16007A   25083.64772484  .00000062  00000+0  00000+0 0  9998
2 41328  55.2561 107.3033 0087283 241.8108 117.3689  2.00573758 66827
COSMOS 2514 (751)       
1 41330U 16008A   25085.14150962 -.00000024  00000+0  00000+0 0  9999
2 41330  65.2738 328.3461 0008602 209.9598 150.0532  2.13102589 71071
IRNSS-1F                
1 41384U 16015A   25084.83228125  .00000159  00000+0  00000+0 0  9996
2 41384   4.2358 108.4674 0019770 190.2483 216.8582  1.00274250 33172
BEIDOU-2 IGSO-6 (C13)   
1 41434U 16021A   25084.84459345 -.00000132  00000+0  00000+0 0  9992
2 41434  59.5960  42.5132 0053077 230.1469 309.4890  1.00260150 32986
IRNSS-1G                
1 41469U 16027A   25084.92292424 -.00000335  00000+0  00000+0 0  9993
2 41469   4.0992 109.4072 0006586 314.1871 221.8141  1.00269496 32688
GSAT0211 (GALILEO 14)   
1 41549U 16030A   25084.64569203  .00000027  00000+0  00000+0 0  9994
2 41549  55.2496 234.0288 0003018  22.1099 337.8545  1.70473851 55021
GSAT0210 (GALILEO 13)   
1 41550U 16030B   25082.55715731  .00000038  00000+0  00000+0 0  9995
2 41550  55.2480 234.0846 0001568 188.1854 171.7726  1.70473949 54984
BEIDOU-2 G7 (C03)       
1 41586U 16037A   25084.91575193 -.00000355  00000+0  00000+0 0  9992
2 41586   1.5600  67.7196 0010392 335.6620 220.4101  1.00274829 32282
E 117 W B (WAAS/PRN 131)
1 41589U 16038B   25084.85220192 -.00000014  00000+0  00000+0 0  9997
2 41589   0.0310  30.0441 0000244 267.1419  76.1383  1.00271182 32213
GSAT0207 (GALILEO 15)   
1 41859U 16069A   25080.48948725  .00000039  00000+0  00000+0 0  9991
2 41859  55.2270 113.6251 0005463 300.2992  59.7149  1.70474564 51685
GSAT0212 (GALILEO 16)   
1 41860U 16069B   25082.68978559  .00000048  00000+0  00000+0 0  9995
2 41860  55.2257 113.5600 0003874 321.8299  38.2152  1.70474740 51976
GSAT0213 (GALILEO 17)   
1 41861U 16069C   25081.29815208  .00000042  00000+0  00000+0 0  9997
2 41861  55.2271 113.6060 0005653 285.6568  74.3496  1.70475012 51815
GSAT0214 (GALILEO 18)   
1 41862U 16069D   25084.96318798  .00000061  00000+0  00000+0 0  9998
2 41862  55.2280 113.4973 0004719 288.7193  71.3100  1.70474724 52007
SES-15 (WAAS/PRN 133)   
1 42709U 17026A   25085.07683634  .00000058  00000+0  00000+0 0  9996
2 42709   0.0451  29.0381 0001229 341.5582  71.6509  1.00267213 29695
QZS-2 (QZSS/PRN 194)    
1 42738U 17028A   25084.78376102 -.00000150  00000+0  00000+0 0  9990
2 42738  40.1263 249.6850 0742970 270.4733  85.7430  1.00257650  3131
QZS-3 (QZSS/PRN 199)    
1 42917U 17048A   25084.92240296 -.00000351  00000+0  00000+0 0  9994
2 42917   0.0595 206.2819 0001806 163.6329 272.7982  1.00274031 27764
COSMOS 2522 (752)       
1 42939U 17055A   25084.98055996  .00000007  00000+0  00000+0 0  9990
2 42939  64.0783 207.1449 0007450 231.8788 128.0351  2.13101758 58424
QZS-4 (QZSS/PRN 195)    
1 42965U 17062A   25083.66317499 -.00000291  00000+0  00000+0 0  9996
2 42965  40.3727 349.2219 0747603 270.0444 301.9229  1.00275680 27294
BEIDOU-3 M1 (C19)       
1 43001U 17069A   25082.62811727  .00000040  00000+0  00000+0 0  9994
2 43001  56.2974  77.9708 0012533 305.4177  54.4886  1.86231275 50210
BEIDOU-3 M2 (C20)       
1 43002U 17069B   25083.10286003  .00000043  00000+0  00000+0 0  9995
2 43002  56.2976  77.9906 0010071 324.8985  35.0591  1.86230898 50218
GSAT0215 (GALILEO 19)   
1 43055U 17079A   25082.52039100  .00000038  00000+0  00000+0 0  9997
2 43055  55.2279 233.9052 0000192   8.6970 351.2639  1.70474547 45305
GSAT0216 (GALILEO 20)   
1 43056U 17079B   25083.39844651  .00000034  00000+0  00000+0 0  9995
2 43056  55.2279 233.8810 0001569 302.0392  57.9032  1.70474646 45335
GSAT0217 (GALILEO 21)   
1 43057U 17079C   25084.79218971  .00000025  00000+0  00000+0 0  9991
2 43057  55.2275 233.8410 0001726 346.3769  13.5689  1.70474516 45345
GSAT0218 (GALILEO 22)   
1 43058U 17079D   25079.73301596  .00000037  00000+0  00000+0 0  9999
2 43058  55.2277 233.9776 0001894 291.5798  68.3585  1.70474613 45287
BEIDOU-3 M7 (C27)       
1 43107U 18003A   25084.99723501 -.00000030  00000+0  00000+0 0  9994
2 43107  54.7171 317.8960 0004827  66.4372 293.6700  1.86232386 49015
BEIDOU-3 M8 (C28)       
1 43108U 18003B   25084.93998355 -.00000030  00000+0  00000+0 0  9990
2 43108  54.7102 317.8821 0002923 284.8538  75.1703  1.86230848 49018
BEIDOU-3 M4 (C22)       
1 43207U 18018A   25083.23323584  .00000043  00000+0  00000+0 0  9997
2 43207  56.2566  78.0303 0007100 343.8835  16.1181  1.86231182 48362
BEIDOU-3 M3 (C21)       
1 43208U 18018B   25084.37366719  .00000047  00000+0  00000+0 0  9995
2 43208  56.2572  77.9964 0010145 315.3095  44.6328  1.86231170 48384
BEIDOU-3 M9 (C29)       
1 43245U 18029A   25082.98159005 -.00000030  00000+0  00000+0 0  9994
2 43245  54.5940 315.6468 0000923   4.1982 355.8554  1.86232642 47514
BEIDOU-3 M10 (C30)      
1 43246U 18029B   25085.06047255 -.00000026  00000+0  00000+0 0  9995
2 43246  54.5896 315.6009 0004984  18.7175 341.3571  1.86228965 47547
COSMOS 2527 (756)       
1 43508U 18053A   25084.00195129  .00000081  00000+0  00000+0 0  9990
2 43508  65.3346  88.9170 0009713 246.0361 113.9034  2.13102264 52700
BEIDOU-2 IGSO-7 (C16)   
1 43539U 18057A   25084.63431483 -.00000151  00000+0  00000+0 0  9992
2 43539  55.1577 166.9481 0086658 235.3062 122.3779  1.00282294 24628
GSAT0221 (GALILEO 25)   
1 43564U 18060A   25080.22141065 -.00000084  00000+0  00000+0 0  9994
2 43564  57.2828 354.0053 0005084 309.0933  50.8887  1.70475499 41456
GSAT0222 (GALILEO 26)   
1 43565U 18060B   25084.54643956 -.00000079  00000+0  00000+0 0  9994
2 43565  57.2854 353.8912 0003856 284.8555  75.1302  1.70475148 41567
GSAT0219 (GALILEO 23)   
1 43566U 18060C   25080.07523474 -.00000084  00000+0  00000+0 0  9997
2 43566  57.2854 354.0137 0004660 319.5747  40.4178  1.70475488 41465
GSAT0220 (GALILEO 24)   
1 43567U 18060D   25083.81553854 -.00000079  00000+0  00000+0 0  9992
2 43567  57.2847 353.9134 0004629 312.1341  47.8542  1.70475351 41518
BEIDOU-3 M5 (C23)       
1 43581U 18062A   25085.28586661 -.00000002  00000+0  00000+0 0  9991
2 43581  54.1060 197.5330 0002449 288.3280  71.6294  1.86228567 45291
BEIDOU-3 M6 (C24)       
1 43582U 18062B   25082.46552206  .00000003  00000+0  00000+0 0  9997
2 43582  54.1058 197.6181 0005412  36.8285 323.1972  1.86229430 45241
BEIDOU-3 M12 (C26)      
1 43602U 18067A   25085.08534202 -.00000002  00000+0  00000+0 0  9992
2 43602  54.1979 196.2363 0007711  33.3486 326.6861  1.86227776 44775
BEIDOU-3 M11 (C25)      
1 43603U 18067B   25083.60828095 -.00000002  00000+0  00000+0 0  9995
2 43603  54.1952 196.2508 0004328  25.8502 334.1593  1.86227225 44779
BEIDOU-3 M13 (C32)      
1 43622U 18072A   25085.17872011  .00000045  00000+0  00000+0 0  9999
2 43622  56.2313  77.4883 0009056 304.8669  55.0696  1.86231153 44315
BEIDOU-3 M14 (C33)      
1 43623U 18072B   25084.50724896  .00000046  00000+0  00000+0 0  9994
2 43623  56.2325  77.5041 0006683 324.7750  35.2040  1.86231185 44296
BEIDOU-3 M16 (C35)      
1 43647U 18078A   25083.05708283 -.00000030  00000+0  00000+0 0  9991
2 43647  54.4900 315.7187 0008219  24.4290 335.6629  1.86232296 43775
BEIDOU-3 M15 (C34)      
1 43648U 18078B   25083.18632343 -.00000029  00000+0  00000+0 0  9997
2 43648  54.4857 315.7160 0005224  33.1401 326.9457  1.86232154 43799
